[{"OBJECT_NAME":"STARLINK-4258","OBJECT_ID":"2022-083BA","EPOCH":"2026-03-09T10:28:22.677312","MEAN_MOTION":15.08837411,"ECCENTRICITY":0.00015108,"INCLINATION":53.2186,"RA_OF_ASC_NODE":125.1293,"ARG_OF_PERICENTER":96.6947,"MEAN_ANOMALY":263.4217,"EPHEMERIS_TYPE":0,"CLASSIFICATION_TYPE":"U","NORAD_CAT_ID":53180,"ELEMENT_SET_NO":999,"REV_AT_EPOCH":20187,"BSTAR":-3.3853939e-5,"MEAN_MOTION_DOT":-8.27e-6,"MEAN_MOTION_DDOT":0},{"OBJECT_NAME":"UNKNOWN","OBJECT_ID":"","EPOCH":"2026-02-23T08:31:05.057760","MEAN_MOTION":14.01835433,"ECCENTRICITY":0.0516167,"INCLINATION":65.5338,"RA_OF_ASC_NODE":24.2147,"ARG_OF_PERICENTER":354.4749,"MEAN_ANOMALY":5.0755,"EPHEMERIS_TYPE":0,"CLASSIFICATION_TYPE":"U","NORAD_CAT_ID":85237,"ELEMENT_SET_NO":999,"REV_AT_EPOCH":61852,"BSTAR":0.0026977,"MEAN_MOTION_DOT":0.00013478,"MEAN_MOTION_DDOT":0}]
